{
  "type": "FeatureCollection",
  "name": "FleetPlan_plan_1789646991_ba6bbd",
  "crs": {
    "type": "name",
    "properties": {
      "name": "urn:ogc:def:crs:OGC:1.3:CRS84"
    }
  },
  "properties": {
    "plan_id": "plan_1789646991_ba6bbd",
    "created_at": "2026-09-17 17:09:51",
    "drones_count": 5,
    "makespan_s": 1044.2,
    "coverage_percentage": 99.5,
    "state": "VALIDATED"
  },
  "features": [
    {
      "type": "Feature",
      "geometry": {
        "type": "Polygon",
        "coordinates": [
          [
            [
              63.621,
              53.2172
            ],
            [
              63.6285,
              53.2175
            ],
            [
              63.629,
              53.213
            ],
            [
              63.6215,
              53.2127
            ],
            [
              63.621,
              53.2172
            ]
          ]
        ]
      },
      "properties": {
        "feature_type": "field_boundary",
        "field_id": "kostanay_field_demo_01",
        "name": "Костанай — Поле №1 (Демонстрационное)",
        "area_ha": 23.44,
        "stroke": "#1E293B",
        "stroke-width": 3,
        "fill": "#E2E8F0",
        "fill-opacity": 0.2
      }
    },
    {
      "type": "Feature",
      "geometry": {
        "type": "Polygon",
        "coordinates": [
          [
            [
              63.624,
              53.2145
            ],
            [
              63.6252,
              53.2148
            ],
            [
              63.6255,
              53.2142
            ],
            [
              63.6243,
              53.2139
            ],
            [
              63.624,
              53.2145
            ]
          ]
        ]
      },
      "properties": {
        "feature_type": "exclusion_zone",
        "zone_id": "ez_lake_01",
        "name": "Внутренний водоем / заболоченный участок",
        "stroke": "#EF4444",
        "stroke-width": 2,
        "fill": "#FCA5A5",
        "fill-opacity": 0.5
      }
    },
    {
      "type": "Feature",
      "geometry": {
        "type": "LineString",
        "coordinates": [
          [
            63.6288128,
            53.2130375
          ],
          [
            63.6283251,
            53.217448
          ]
        ]
      },
      "properties": {
        "feature_type": "survey_lane",
        "system_id": 1,
        "lane_id": 1,
        "length_m": 491.92,
        "stroke": "#2563EB",
        "stroke-width": 3
      }
    },
    {
      "type": "Feature",
      "geometry": {
        "type": "LineString",
        "coordinates": [
          [
            63.6281101,
            53.2174394
          ],
          [
            63.6285977,
            53.2130289
          ]
        ]
      },
      "properties": {
        "feature_type": "survey_lane",
        "system_id": 1,
        "lane_id": 2,
        "length_m": 491.92,
        "stroke": "#2563EB",
        "stroke-width": 3
      }
    },
    {
      "type": "Feature",
      "geometry": {
        "type": "LineString",
        "coordinates": [
          [
            63.6283827,
            53.2130204
          ],
          [
            63.627895,
            53.2174308
          ]
        ]
      },
      "properties": {
        "feature_type": "survey_lane",
        "system_id": 1,
        "lane_id": 3,
        "length_m": 491.92,
        "stroke": "#2563EB",
        "stroke-width": 3
      }
    },
    {
      "type": "Feature",
      "geometry": {
        "type": "LineString",
        "coordinates": [
          [
            63.6276799,
            53.2174222
          ],
          [
            63.6281676,
            53.2130118
          ]
        ]
      },
      "properties": {
        "feature_type": "survey_lane",
        "system_id": 1,
        "lane_id": 4,
        "length_m": 491.92,
        "stroke": "#2563EB",
        "stroke-width": 3
      }
    },
    {
      "type": "Feature",
      "geometry": {
        "type": "LineString",
        "coordinates": [
          [
            63.6279525,
            53.2130032
          ],
          [
            63.6274648,
            53.2174136
          ]
        ]
      },
      "properties": {
        "feature_type": "survey_lane",
        "system_id": 1,
        "lane_id": 5,
        "length_m": 491.92,
        "stroke": "#2563EB",
        "stroke-width": 3
      }
    },
    {
      "type": "Feature",
      "geometry": {
        "type": "LineString",
        "coordinates": [
          [
            63.6272497,
            53.217405
          ],
          [
            63.6277374,
            53.2129946
          ]
        ]
      },
      "properties": {
        "feature_type": "survey_lane",
        "system_id": 1,
        "lane_id": 6,
        "length_m": 491.92,
        "stroke": "#2563EB",
        "stroke-width": 3
      }
    },
    {
      "type": "Feature",
      "geometry": {
        "type": "LineString",
        "coordinates": [
          [
            63.6275224,
            53.212986
          ],
          [
            63.6270346,
            53.2173964
          ]
        ]
      },
      "properties": {
        "feature_type": "survey_lane",
        "system_id": 1,
        "lane_id": 7,
        "length_m": 491.92,
        "stroke": "#2563EB",
        "stroke-width": 3
      }
    },
    {
      "type": "Feature",
      "geometry": {
        "type": "LineString",
        "coordinates": [
          [
            63.6268195,
            53.2173878
          ],
          [
            63.6273073,
            53.2129774
          ]
        ]
      },
      "properties": {
        "feature_type": "survey_lane",
        "system_id": 1,
        "lane_id": 8,
        "length_m": 491.92,
        "stroke": "#2563EB",
        "stroke-width": 3
      }
    },
    {
      "type": "Feature",
      "geometry": {
        "type": "LineString",
        "coordinates": [
          [
            63.6270922,
            53.2129688
          ],
          [
            63.6266044,
            53.2173792
          ]
        ]
      },
      "properties": {
        "feature_type": "survey_lane",
        "system_id": 1,
        "lane_id": 9,
        "length_m": 491.92,
        "stroke": "#2563EB",
        "stroke-width": 3
      }
    },
    {
      "type": "Feature",
      "geometry": {
        "type": "Point",
        "coordinates": [
          63.6247,
          53.2124
        ]
      },
      "properties": {
        "feature_type": "landing_pad",
        "system_id": 1,
        "pad_id": "P1",
        "marker-color": "#2563EB",
        "marker-symbol": "heliport"
      }
    },
    {
      "type": "Feature",
      "geometry": {
        "type": "LineString",
        "coordinates": [
          [
            63.6247,
            53.2124
          ],
          [
            63.6288128,
            53.2130375
          ]
        ]
      },
      "properties": {
        "feature_type": "transit_route",
        "system_id": 1,
        "stroke": "#2563EB",
        "stroke-width": 1.5,
        "stroke-dasharray": "5,5"
      }
    },
    {
      "type": "Feature",
      "geometry": {
        "type": "LineString",
        "coordinates": [
          [
            63.6263893,
            53.2173706
          ],
          [
            63.6268772,
            53.2129602
          ]
        ]
      },
      "properties": {
        "feature_type": "survey_lane",
        "system_id": 2,
        "lane_id": 10,
        "length_m": 491.92,
        "stroke": "#10B981",
        "stroke-width": 3
      }
    },
    {
      "type": "Feature",
      "geometry": {
        "type": "LineString",
        "coordinates": [
          [
            63.6266621,
            53.2129516
          ],
          [
            63.6261742,
            53.217362
          ]
        ]
      },
      "properties": {
        "feature_type": "survey_lane",
        "system_id": 2,
        "lane_id": 11,
        "length_m": 491.92,
        "stroke": "#10B981",
        "stroke-width": 3
      }
    },
    {
      "type": "Feature",
      "geometry": {
        "type": "LineString",
        "coordinates": [
          [
            63.6259591,
            53.2173534
          ],
          [
            63.626447,
            53.212943
          ]
        ]
      },
      "properties": {
        "feature_type": "survey_lane",
        "system_id": 2,
        "lane_id": 12,
        "length_m": 491.92,
        "stroke": "#10B981",
        "stroke-width": 3
      }
    },
    {
      "type": "Feature",
      "geometry": {
        "type": "LineString",
        "coordinates": [
          [
            63.6262319,
            53.2129344
          ],
          [
            63.625744,
            53.2173448
          ]
        ]
      },
      "properties": {
        "feature_type": "survey_lane",
        "system_id": 2,
        "lane_id": 13,
        "length_m": 491.92,
        "stroke": "#10B981",
        "stroke-width": 3
      }
    },
    {
      "type": "Feature",
      "geometry": {
        "type": "LineString",
        "coordinates": [
          [
            63.6255289,
            53.2173362
          ],
          [
            63.6260169,
            53.2129258
          ]
        ]
      },
      "properties": {
        "feature_type": "survey_lane",
        "system_id": 2,
        "lane_id": 14,
        "length_m": 491.92,
        "stroke": "#10B981",
        "stroke-width": 3
      }
    },
    {
      "type": "Feature",
      "geometry": {
        "type": "LineString",
        "coordinates": [
          [
            63.6258018,
            53.2129172
          ],
          [
            63.6253138,
            53.2173276
          ]
        ]
      },
      "properties": {
        "feature_type": "survey_lane",
        "system_id": 2,
        "lane_id": 15,
        "length_m": 491.92,
        "stroke": "#10B981",
        "stroke-width": 3
      }
    },
    {
      "type": "Feature",
      "geometry": {
        "type": "LineString",
        "coordinates": [
          [
            63.6254506,
            53.214139
          ],
          [
            63.6255867,
            53.2129086
          ]
        ]
      },
      "properties": {
        "feature_type": "survey_lane",
        "system_id": 2,
        "lane_id": 16,
        "length_m": 137.24,
        "stroke": "#10B981",
        "stroke-width": 3
      }
    },
    {
      "type": "Feature",
      "geometry": {
        "type": "LineString",
        "coordinates": [
          [
            63.6254057,
            53.2145449
          ],
          [
            63.6250987,
            53.217319
          ]
        ]
      },
      "properties": {
        "feature_type": "survey_lane",
        "system_id": 2,
        "lane_id": 17,
        "length_m": 309.41,
        "stroke": "#10B981",
        "stroke-width": 3
      }
    },
    {
      "type": "Feature",
      "geometry": {
        "type": "Point",
        "coordinates": [
          63.62485,
          53.2124
        ]
      },
      "properties": {
        "feature_type": "landing_pad",
        "system_id": 2,
        "pad_id": "P2",
        "marker-color": "#10B981",
        "marker-symbol": "heliport"
      }
    },
    {
      "type": "Feature",
      "geometry": {
        "type": "LineString",
        "coordinates": [
          [
            63.62485,
            53.2124
          ],
          [
            63.6263893,
            53.2173706
          ]
        ]
      },
      "properties": {
        "feature_type": "transit_route",
        "system_id": 2,
        "stroke": "#10B981",
        "stroke-width": 1.5,
        "stroke-dasharray": "5,5"
      }
    },
    {
      "type": "Feature",
      "geometry": {
        "type": "LineString",
        "coordinates": [
          [
            63.6252404,
            53.2140864
          ],
          [
            63.6253717,
            53.2129
          ]
        ]
      },
      "properties": {
        "feature_type": "survey_lane",
        "system_id": 3,
        "lane_id": 18,
        "length_m": 132.33,
        "stroke": "#F59E0B",
        "stroke-width": 3
      }
    },
    {
      "type": "Feature",
      "geometry": {
        "type": "LineString",
        "coordinates": [
          [
            63.6251572,
            53.214838
          ],
          [
            63.6248837,
            53.2173104
          ]
        ]
      },
      "properties": {
        "feature_type": "survey_lane",
        "system_id": 3,
        "lane_id": 19,
        "length_m": 275.76,
        "stroke": "#F59E0B",
        "stroke-width": 3
      }
    },
    {
      "type": "Feature",
      "geometry": {
        "type": "LineString",
        "coordinates": [
          [
            63.6250302,
            53.2140339
          ],
          [
            63.6251566,
            53.2128914
          ]
        ]
      },
      "properties": {
        "feature_type": "survey_lane",
        "system_id": 3,
        "lane_id": 20,
        "length_m": 127.43,
        "stroke": "#F59E0B",
        "stroke-width": 3
      }
    },
    {
      "type": "Feature",
      "geometry": {
        "type": "LineString",
        "coordinates": [
          [
            63.624947,
            53.2147854
          ],
          [
            63.6246686,
            53.2173018
          ]
        ]
      },
      "properties": {
        "feature_type": "survey_lane",
        "system_id": 3,
        "lane_id": 21,
        "length_m": 280.66,
        "stroke": "#F59E0B",
        "stroke-width": 3
      }
    },
    {
      "type": "Feature",
      "geometry": {
        "type": "LineString",
        "coordinates": [
          [
            63.62482,
            53.2139813
          ],
          [
            63.6249415,
            53.2128827
          ]
        ]
      },
      "properties": {
        "feature_type": "survey_lane",
        "system_id": 3,
        "lane_id": 22,
        "length_m": 122.53,
        "stroke": "#F59E0B",
        "stroke-width": 3
      }
    },
    {
      "type": "Feature",
      "geometry": {
        "type": "LineString",
        "coordinates": [
          [
            63.6247368,
            53.2147329
          ],
          [
            63.6244535,
            53.2172932
          ]
        ]
      },
      "properties": {
        "feature_type": "survey_lane",
        "system_id": 3,
        "lane_id": 23,
        "length_m": 285.56,
        "stroke": "#F59E0B",
        "stroke-width": 3
      }
    },
    {
      "type": "Feature",
      "geometry": {
        "type": "LineString",
        "coordinates": [
          [
            63.6246097,
            53.2139288
          ],
          [
            63.6247264,
            53.2128741
          ]
        ]
      },
      "properties": {
        "feature_type": "survey_lane",
        "system_id": 3,
        "lane_id": 24,
        "length_m": 117.63,
        "stroke": "#F59E0B",
        "stroke-width": 3
      }
    },
    {
      "type": "Feature",
      "geometry": {
        "type": "Point",
        "coordinates": [
          63.625,
          53.2124
        ]
      },
      "properties": {
        "feature_type": "landing_pad",
        "system_id": 3,
        "pad_id": "P3",
        "marker-color": "#F59E0B",
        "marker-symbol": "heliport"
      }
    },
    {
      "type": "Feature",
      "geometry": {
        "type": "LineString",
        "coordinates": [
          [
            63.625,
            53.2124
          ],
          [
            63.6252404,
            53.2140864
          ]
        ]
      },
      "properties": {
        "feature_type": "transit_route",
        "system_id": 3,
        "stroke": "#F59E0B",
        "stroke-width": 1.5,
        "stroke-dasharray": "5,5"
      }
    },
    {
      "type": "Feature",
      "geometry": {
        "type": "LineString",
        "coordinates": [
          [
            63.6245266,
            53.2146803
          ],
          [
            63.6242384,
            53.2172846
          ]
        ]
      },
      "properties": {
        "feature_type": "survey_lane",
        "system_id": 4,
        "lane_id": 25,
        "length_m": 290.47,
        "stroke": "#8B5CF6",
        "stroke-width": 3
      }
    },
    {
      "type": "Feature",
      "geometry": {
        "type": "LineString",
        "coordinates": [
          [
            63.6243995,
            53.2138762
          ],
          [
            63.6245114,
            53.2128655
          ]
        ]
      },
      "properties": {
        "feature_type": "survey_lane",
        "system_id": 4,
        "lane_id": 26,
        "length_m": 112.73,
        "stroke": "#8B5CF6",
        "stroke-width": 3
      }
    },
    {
      "type": "Feature",
      "geometry": {
        "type": "LineString",
        "coordinates": [
          [
            63.6243164,
            53.2146278
          ],
          [
            63.6240233,
            53.217276
          ]
        ]
      },
      "properties": {
        "feature_type": "survey_lane",
        "system_id": 4,
        "lane_id": 27,
        "length_m": 295.37,
        "stroke": "#8B5CF6",
        "stroke-width": 3
      }
    },
    {
      "type": "Feature",
      "geometry": {
        "type": "LineString",
        "coordinates": [
          [
            63.6241692,
            53.2140053
          ],
          [
            63.6242963,
            53.2128569
          ]
        ]
      },
      "properties": {
        "feature_type": "survey_lane",
        "system_id": 4,
        "lane_id": 28,
        "length_m": 128.08,
        "stroke": "#8B5CF6",
        "stroke-width": 3
      }
    },
    {
      "type": "Feature",
      "geometry": {
        "type": "LineString",
        "coordinates": [
          [
            63.6241061,
            53.2145752
          ],
          [
            63.6238082,
            53.2172674
          ]
        ]
      },
      "properties": {
        "feature_type": "survey_lane",
        "system_id": 4,
        "lane_id": 29,
        "length_m": 300.27,
        "stroke": "#8B5CF6",
        "stroke-width": 3
      }
    },
    {
      "type": "Feature",
      "geometry": {
        "type": "LineString",
        "coordinates": [
          [
            63.6235931,
            53.2172588
          ],
          [
            63.6240812,
            53.2128483
          ]
        ]
      },
      "properties": {
        "feature_type": "survey_lane",
        "system_id": 4,
        "lane_id": 30,
        "length_m": 491.92,
        "stroke": "#8B5CF6",
        "stroke-width": 3
      }
    },
    {
      "type": "Feature",
      "geometry": {
        "type": "LineString",
        "coordinates": [
          [
            63.6238662,
            53.2128397
          ],
          [
            63.623378,
            53.2172501
          ]
        ]
      },
      "properties": {
        "feature_type": "survey_lane",
        "system_id": 4,
        "lane_id": 31,
        "length_m": 491.92,
        "stroke": "#8B5CF6",
        "stroke-width": 3
      }
    },
    {
      "type": "Feature",
      "geometry": {
        "type": "LineString",
        "coordinates": [
          [
            63.6231629,
            53.2172415
          ],
          [
            63.6236511,
            53.2128311
          ]
        ]
      },
      "properties": {
        "feature_type": "survey_lane",
        "system_id": 4,
        "lane_id": 32,
        "length_m": 491.92,
        "stroke": "#8B5CF6",
        "stroke-width": 3
      }
    },
    {
      "type": "Feature",
      "geometry": {
        "type": "Point",
        "coordinates": [
          63.62515,
          53.2124
        ]
      },
      "properties": {
        "feature_type": "landing_pad",
        "system_id": 4,
        "pad_id": "P4",
        "marker-color": "#8B5CF6",
        "marker-symbol": "heliport"
      }
    },
    {
      "type": "Feature",
      "geometry": {
        "type": "LineString",
        "coordinates": [
          [
            63.62515,
            53.2124
          ],
          [
            63.6245266,
            53.2146803
          ]
        ]
      },
      "properties": {
        "feature_type": "transit_route",
        "system_id": 4,
        "stroke": "#8B5CF6",
        "stroke-width": 1.5,
        "stroke-dasharray": "5,5"
      }
    },
    {
      "type": "Feature",
      "geometry": {
        "type": "LineString",
        "coordinates": [
          [
            63.623436,
            53.2128225
          ],
          [
            63.6229478,
            53.2172329
          ]
        ]
      },
      "properties": {
        "feature_type": "survey_lane",
        "system_id": 5,
        "lane_id": 33,
        "length_m": 491.92,
        "stroke": "#EC4899",
        "stroke-width": 3
      }
    },
    {
      "type": "Feature",
      "geometry": {
        "type": "LineString",
        "coordinates": [
          [
            63.6227327,
            53.2172243
          ],
          [
            63.623221,
            53.2128139
          ]
        ]
      },
      "properties": {
        "feature_type": "survey_lane",
        "system_id": 5,
        "lane_id": 34,
        "length_m": 491.92,
        "stroke": "#EC4899",
        "stroke-width": 3
      }
    },
    {
      "type": "Feature",
      "geometry": {
        "type": "LineString",
        "coordinates": [
          [
            63.6230059,
            53.2128053
          ],
          [
            63.6225176,
            53.2172157
          ]
        ]
      },
      "properties": {
        "feature_type": "survey_lane",
        "system_id": 5,
        "lane_id": 35,
        "length_m": 491.92,
        "stroke": "#EC4899",
        "stroke-width": 3
      }
    },
    {
      "type": "Feature",
      "geometry": {
        "type": "LineString",
        "coordinates": [
          [
            63.6223025,
            53.2172071
          ],
          [
            63.6227908,
            53.2127967
          ]
        ]
      },
      "properties": {
        "feature_type": "survey_lane",
        "system_id": 5,
        "lane_id": 36,
        "length_m": 491.92,
        "stroke": "#EC4899",
        "stroke-width": 3
      }
    },
    {
      "type": "Feature",
      "geometry": {
        "type": "LineString",
        "coordinates": [
          [
            63.6225757,
            53.2127881
          ],
          [
            63.6220874,
            53.2171985
          ]
        ]
      },
      "properties": {
        "feature_type": "survey_lane",
        "system_id": 5,
        "lane_id": 37,
        "length_m": 491.92,
        "stroke": "#EC4899",
        "stroke-width": 3
      }
    },
    {
      "type": "Feature",
      "geometry": {
        "type": "LineString",
        "coordinates": [
          [
            63.6218724,
            53.2171899
          ],
          [
            63.6223607,
            53.2127795
          ]
        ]
      },
      "properties": {
        "feature_type": "survey_lane",
        "system_id": 5,
        "lane_id": 38,
        "length_m": 491.92,
        "stroke": "#EC4899",
        "stroke-width": 3
      }
    },
    {
      "type": "Feature",
      "geometry": {
        "type": "LineString",
        "coordinates": [
          [
            63.6221456,
            53.2127709
          ],
          [
            63.6216573,
            53.2171813
          ]
        ]
      },
      "properties": {
        "feature_type": "survey_lane",
        "system_id": 5,
        "lane_id": 39,
        "length_m": 491.92,
        "stroke": "#EC4899",
        "stroke-width": 3
      }
    },
    {
      "type": "Feature",
      "geometry": {
        "type": "LineString",
        "coordinates": [
          [
            63.6214422,
            53.2171727
          ],
          [
            63.6219305,
            53.2127623
          ]
        ]
      },
      "properties": {
        "feature_type": "survey_lane",
        "system_id": 5,
        "lane_id": 40,
        "length_m": 491.92,
        "stroke": "#EC4899",
        "stroke-width": 3
      }
    },
    {
      "type": "Feature",
      "geometry": {
        "type": "LineString",
        "coordinates": [
          [
            63.6217155,
            53.2127537
          ],
          [
            63.6212271,
            53.2171641
          ]
        ]
      },
      "properties": {
        "feature_type": "survey_lane",
        "system_id": 5,
        "lane_id": 41,
        "length_m": 491.92,
        "stroke": "#EC4899",
        "stroke-width": 3
      }
    },
    {
      "type": "Feature",
      "geometry": {
        "type": "Point",
        "coordinates": [
          63.6253,
          53.2124
        ]
      },
      "properties": {
        "feature_type": "landing_pad",
        "system_id": 5,
        "pad_id": "P5",
        "marker-color": "#EC4899",
        "marker-symbol": "heliport"
      }
    },
    {
      "type": "Feature",
      "geometry": {
        "type": "LineString",
        "coordinates": [
          [
            63.6253,
            53.2124
          ],
          [
            63.623436,
            53.2128225
          ]
        ]
      },
      "properties": {
        "feature_type": "transit_route",
        "system_id": 5,
        "stroke": "#EC4899",
        "stroke-width": 1.5,
        "stroke-dasharray": "5,5"
      }
    }
  ]
}