{
  "type": "FeatureCollection",
  "features": [
    {
      "type": "Feature",
      "id": "zone_0",
      "geometry": {
        "type": "Polygon",
        "coordinates": [
          [
            [
              63.33817739124756,
              52.944001051880434
            ],
            [
              63.338176900891305,
              52.94400137848229
            ],
            [
              63.33817678649004,
              52.9440014715977
            ],
            [
              63.33817640622983,
              52.944001641841076
            ],
            [
              63.338175865239926,
              52.944001937836646
            ],
            [
              63.33817537488365,
              52.944002264438495
            ],
            [
              63.33817493988337,
              52.944002618501266
            ],
            [
              63.33817456442839,
              52.94400299661515
            ],
            [
              63.33817425213455,
              52.94400339513871
            ],
            [
              63.33817400600942,
              52.94400381023393
            ],
            [
              63.338173828423294,
              52.944004237903236
            ],
            [
              63.338173721086456,
              52.94400467402793
            ],
            [
              63.338173685032594,
              52.944005114407894
            ],
            [
              63.33817372060894,
              52.94400555480201
            ],
            [
              63.338173827472886,
              52.94400599096908
            ],
            [
              63.33817400459526,
              52.94400641870855
            ],
            [
              63.3381742502703,
              52.94400683390106
            ],
            [
              63.338174562132,
              52.94400723254807
            ],
            [
              63.338174728966855,
              52.94400740081415
            ],
            [
              63.33817474929326,
              52.94400743516591
            ],
            [
              63.338175061154956,
              52.944007833812925
            ],
            [
              63.33817543619995,
              52.94400821207526
            ],
            [
              63.33817587081631,
              52.944008566310046
            ],
            [
              63.33817636081845,
              52.9440088931058
            ],
            [
              63.338176901487415,
              52.9440091893153
            ],
            [
              63.33817732913181,
              52.944009381034874
            ],
            [
              63.338177425457545,
              52.94400944527712
            ],
            [
              63.33817796612652,
              52.94400974148662
            ],
            [
              63.33817855225536,
              52.9440100042572
            ],
            [
              63.33817917819932,
              52.94401023105824
            ],
            [
              63.33817983793023,
              52.944010419705535
            ],
            [
              63.33818052509449,
              52.944010568382296
            ],
            [
              63.33818123307435,
              52.944010675656685
            ],
            [
              63.33818195505162,
              52.94401074049559
            ],
            [
              63.33818268407317,
              52.94401076227457
            ],
            [
              63.338183413118195,
              52.944010740783895
            ],
            [
              63.338184135165555,
              52.944010676230526
            ],
            [
              63.338184843261544,
              52.944010569236156
            ],
            [
              63.33818553058681,
              52.944010420831184
            ],
            [
              63.33818597128989,
              52.944010295027255
            ],
            [
              63.33818600070683,
              52.94401028867564
            ],
            [
              63.33818666064204,
              52.944010100289304
            ],
            [
              63.338187286831705,
              52.944009873735844
            ],
            [
              63.33818787324522,
              52.94400961119712
            ],
            [
              63.33818841423513,
              52.9440093152015
            ],
            [
              63.33818890459139,
              52.944008988599606
            ],
            [
              63.33818896073499,
              52.944008942902244
            ],
            [
              63.33818927881943,
              52.944008852101256
            ],
            [
              63.338189905009045,
              52.94400862554779
            ],
            [
              63.33819049142252,
              52.94400836300903
            ],
            [
              63.33819103241241,
              52.94400806701341
            ],
            [
              63.33819152276864,
              52.9440077404115
            ],
            [
              63.33819195776883,
              52.944007386348666
            ],
            [
              63.33819233322369,
              52.94400700823473
            ],
            [
              63.338192645517395,
              52.944006609711124
            ],
            [
              63.338192891642365,
              52.94400619461585
            ],
            [
              63.3381930692283,
              52.944005766946525
            ],
            [
              63.338193176564964,
              52.94400533082182
            ],
            [
              63.33819321261863,
              52.94400489044185
            ],
            [
              63.33819317704207,
              52.944004450047736
            ],
            [
              63.338193070177944,
              52.94400401388067
            ],
            [
              63.338192893055385,
              52.94400358614123
            ],
            [
              63.338192647380204,
              52.94400317094877
            ],
            [
              63.33819233551837,
              52.9440027723018
            ],
            [
              63.33819196047328,
              52.944002394039515
            ],
            [
              63.33819152585684,
              52.944002039804786
            ],
            [
              63.33819103585466,
              52.94400171300911
            ],
            [
              63.338190608998474,
              52.94400147915282
            ],
            [
              63.33819027428987,
              52.9440012063481
            ],
            [
              63.33818978428771,
              52.94400087955241
            ],
            [
              63.33818948283678,
              52.94400071440031
            ],
            [
              63.3381890189164,
              52.944000404999265
            ],
            [
              63.33818847824747,
              52.944000108789815
            ],
            [
              63.338187892118704,
              52.943999846019274
            ],
            [
              63.33818726617484,
              52.94399961921829
            ],
            [
              63.33818660644409,
              52.94399943057102
            ],
            [
              63.33818591927996,
              52.94399928189431
            ],
            [
              63.33818521130026,
              52.94399917461995
            ],
            [
              63.33818448932321,
              52.94399910978106
            ],
            [
              63.33818376030183,
              52.94399908800209
            ],
            [
              63.338183031257024,
              52.943999109492765
            ],
            [
              63.338182309209856,
              52.94399917404613
            ],
            [
              63.338181601114044,
              52.94399928104048
            ],
            [
              63.338180913788925,
              52.943999429445434
            ],
            [
              63.33818025385383,
              52.943999617831764
            ],
            [
              63.33817962766429,
              52.943999844385175
            ],
            [
              63.33817904125086,
              52.944000106923866
            ],
            [
              63.338178500261,
              52.94400040291944
            ],
            [
              63.33817804841338,
              52.94400070387262
            ],
            [
              63.33817793223744,
              52.944000755884865
            ],
            [
              63.33817739124756,
              52.944001051880434
            ]
          ]
        ]
      },
      "properties": {
        "id": "zone_0",
        "area_m2": 1.27,
        "weed_count": 31,
        "dominant_species": "leafy_spurge",
        "has_perennials": false,
        "rate_l_ha": 200
      }
    },
    {
      "type": "Feature",
      "id": "zone_1",
      "geometry": {
        "type": "Polygon",
        "coordinates": [
          [
            [
              63.36167101925138,
              52.9237911054847
            ],
            [
              63.36167058464572,
              52.92379075133462
            ],
            [
              63.36167009469495,
              52.923790424634625
            ],
            [
              63.36166955411753,
              52.92379012853096
            ],
            [
              63.36166896811958,
              52.92378986587532
            ],
            [
              63.36166834234453,
              52.9237896391972
            ],
            [
              63.361667682818954,
              52.92378945067963
            ],
            [
              63.36166699589443,
              52.92378930213814
            ],
            [
              63.36166628818642,
              52.923789195003266
            ],
            [
              63.36166556651054,
              52.92378913030678
            ],
            [
              63.361664837816924,
              52.923789108671734
            ],
            [
              63.361664109123296,
              52.92378913030649
            ],
            [
              63.36166338744735,
              52.9237891950027
            ],
            [
              63.361662679739226,
              52.923789302137294
            ],
            [
              63.36166199281454,
              52.92378945067851
            ],
            [
              63.36166133328875,
              52.92378963919582
            ],
            [
              63.361660707513465,
              52.923789865873694
            ],
            [
              63.361660121515214,
              52.92379012852911
            ],
            [
              63.3616595809375,
              52.92379042463254
            ],
            [
              63.361659090986365,
              52.92379075133237
            ],
            [
              63.36165865638033,
              52.92379110548227
            ],
            [
              63.361658281304855,
              52.92379148367161
            ],
            [
              63.36165796937215,
              52.923791882258215
            ],
            [
              63.36165772358629,
              52.92379229740346
            ],
            [
              63.36165754631434,
              52.923792725109294
            ],
            [
              63.36165743926351,
              52.92379316125666
            ],
            [
              63.361657403464775,
              52.92379360164523
            ],
            [
              63.361657439262885,
              52.923794042033826
            ],
            [
              63.361657546313104,
              52.92379447818124
            ],
            [
              63.361657723584464,
              52.923794905887156
            ],
            [
              63.36165796936975,
              52.92379532103256
            ],
            [
              63.36165828130193,
              52.92379571961931
            ],
            [
              63.36165865637692,
              52.92379609780882
            ],
            [
              63.361659090982535,
              52.92379645195894
            ],
            [
              63.3616595809333,
              52.923796778658996
            ],
            [
              63.36166012151072,
              52.92379707476269
            ],
            [
              63.361660707508726,
              52.923797337418385
            ],
            [
              63.361661333283855,
              52.923797564096546
            ],
            [
              63.361661975515844,
              52.92379774767097
            ],
            [
              63.3616619752801,
              52.92379774773835
            ],
            [
              63.361660097953845,
              52.92379842777198
            ],
            [
              63.36165833995872,
              52.92379921573821
            ],
            [
              63.36165671822517,
              52.92380010404848
            ],
            [
              63.36165524837137,
              52.92380108414789
            ],
            [
              63.3616539445528,
              52.923802146597566
            ],
            [
              63.36165281932597,
              52.92380328116552
            ],
            [
              63.36165188352745,
              52.92380447692526
            ],
            [
              63.36165114616948,
              52.92380572236098
            ],
            [
              63.361650614353245,
              52.923807005478444
            ],
            [
              63.36165029320045,
              52.923808313920524
            ],
            [
              63.36165018580398,
              52.92380963508623
            ],
            [
              63.36165029319814,
              52.923810956252005
            ],
            [
              63.36165061434869,
              52.92381226469429
            ],
            [
              63.3616511461628,
              52.923813547812074
            ],
            [
              63.361651883518824,
              52.92381479324825
            ],
            [
              63.361652819315616,
              52.92381598900856
            ],
            [
              63.361653944540976,
              52.923817123577166
            ],
            [
              63.361655248358375,
              52.923818186027574
            ],
            [
              63.36165671821134,
              52.923819166127785
            ],
            [
              63.361658339944384,
              52.9238200544389
            ],
            [
              63.36166009793933,
              52.923820842405966
            ],
            [
              63.361661975265726,
              52.92382152244047
            ],
            [
              63.36166395384389,
              52.923822087993244
            ],
            [
              63.36166601461899,
              52.92382253361776
            ],
            [
              63.361668137744644,
              52.92382285502238
            ],
            [
              63.36167030277397,
              52.923823049111775
            ],
            [
              63.361672488856534,
              52.9238231140168
            ],
            [
              63.36167467493914,
              52.92382304911236
            ],
            [
              63.3616768399686,
              52.92382285502352
            ],
            [
              63.3616789630945,
              52.92382253361948
            ],
            [
              63.36168102386992,
              52.923822087995504
            ],
            [
              63.36168300244849,
              52.92382152244324
            ],
            [
              63.36168487977536,
              52.92382084240924
            ],
            [
              63.36168663777088,
              52.923820054442636
            ],
            [
              63.36168825950457,
              52.923819166131956
            ],
            [
              63.36168972935825,
              52.923818186032136
            ],
            [
              63.36169103317641,
              52.923817123582076
            ],
            [
              63.361692158402604,
              52.92381598901376
            ],
            [
              63.36169309420028,
              52.923814793253705
            ],
            [
              63.36169383155718,
              52.92381354781773
            ],
            [
              63.36169436337222,
              52.923812264700075
            ],
            [
              63.36169468452372,
              52.92381095625787
            ],
            [
              63.36169479191885,
              52.923809635092134
            ],
            [
              63.361694684523336,
              52.9238083139264
            ],
            [
              63.36169436337147,
              52.92380700548422
            ],
            [
              63.36169383155617,
              52.92380572236663
            ],
            [
              63.361693158720584,
              52.92380458591099
            ],
            [
              63.36169345805292,
              52.9238044219505
            ],
            [
              63.361693948003946,
              52.923804095250546
            ],
            [
              63.36169438260982,
              52.92380374110051
            ],
            [
              63.36169475768509,
              52.923803362911066
            ],
            [
              63.36169506961753,
              52.92380296432438
            ],
            [
              63.36169531540309,
              52.92380254917904
            ],
            [
              63.36169549267471,
              52.92380212147316
            ],
            [
              63.36169559972519,
              52.923801685325756
            ],
            [
              63.36169563552354,
              52.923801244937174
            ],
            [
              63.36169559972503,
              52.92380080454859
            ],
            [
              63.36169549267442,
              52.923800368401196
            ],
            [
              63.36169531540267,
              52.92379994069533
            ],
            [
              63.361695069616985,
              52.92379952555004
            ],
            [
              63.361694757684454,
              52.923799126963374
            ],
            [
              63.36169438260912,
              52.92379874877397
            ],
            [
              63.36169394800319,
              52.92379839462397
            ],
            [
              63.36169345805215,
              52.92379806792406
            ],
            [
              63.3616929174745,
              52.923797771820524
            ],
            [
              63.36169233147628,
              52.92379750916499
            ],
            [
              63.361691705701,
              52.923797282486994
            ],
            [
              63.3616910461752,
              52.923797093969554
            ],
            [
              63.361690359250474,
              52.92379694542819
            ],
            [
              63.36168965154229,
              52.923796838293455
            ],
            [
              63.361688929866254,
              52.92379677359711
            ],
            [
              63.361688301043074,
              52.923796754927366
            ],
            [
              63.36168814153842,
              52.92379648551527
            ],
            [
              63.36168782960597,
              52.9237960869286
            ],
            [
              63.361687454530724,
              52.92379570873917
            ],
            [
              63.36168701992489,
              52.923795354589146
            ],
            [
              63.36168652997392,
              52.923795027889206
            ],
            [
              63.36168598939635,
              52.92379473178563
            ],
            [
              63.36168540339822,
              52.923794469130065
            ],
            [
              63.36168477762302,
              52.92379424245203
            ],
            [
              63.3616841180973,
              52.92379405393454
            ],
            [
              63.36168343117265,
              52.923793905393154
            ],
            [
              63.361682723464526,
              52.92379379825838
            ],
            [
              63.36168200178855,
              52.92379373356199
            ],
            [
              63.36168127309485,
              52.92379371192704
            ],
            [
              63.361680544401146,
              52.923793733561915
            ],
            [
              63.36167982272515,
              52.92379379825821
            ],
            [
              63.36167911501699,
              52.923793905392905
            ],
            [
              63.36167842809229,
              52.923794053934216
            ],
            [
              63.361677768566516,
              52.92379424245162
            ],
            [
              63.36167714279124,
              52.92379446912958
            ],
            [
              63.36167655679303,
              52.92379473178508
            ],
            [
              63.36167601621536,
              52.92379502788859
            ],
            [
              63.36167552626429,
              52.92379535458847
            ],
            [
              63.36167509165834,
              52.923795708738446
            ],
            [
              63.36167500129793,
              52.92379579984906
            ],
            [
              63.361674828332106,
              52.92379584928922
            ],
            [
              63.3616742025568,
              52.923796075967175
            ],
            [
              63.361673928282414,
              52.923796198902124
            ],
            [
              63.36167248886629,
              52.923796156165714
            ],
            [
              63.36167088936026,
              52.92379620365479
            ],
            [
              63.361671019249414,
              52.923796097811255
            ],
            [
              63.361671394324794,
              52.92379571962187
            ],
            [
              63.36167170625742,
              52.92379532103525
            ],
            [
              63.36167195204315,
              52.92379490588997
            ],
            [
              63.36167212931497,
              52.923794478184114
            ],
            [
              63.361672236365656,
              52.92379404203673
            ],
            [
              63.361672272164235,
              52.92379360164815
            ],
            [
              63.36167223636598,
              52.923793161259574
            ],
            [
              63.361672129315615,
              52.92379272511216
            ],
            [
              63.36167195204413,
              52.92379229740626
            ],
            [
              63.36167170625871,
              52.92379188226091
            ],
            [
              63.36167139432645,
              52.92379148367419
            ],
            [
              63.36167101925138,
              52.9237911054847
            ]
          ]
        ]
      },
      "properties": {
        "id": "zone_1",
        "area_m2": 8.37,
        "weed_count": 6,
        "dominant_species": "leafy_spurge",
        "has_perennials": true,
        "rate_l_ha": 250
      }
    },
    {
      "type": "Feature",
      "id": "zone_2",
      "geometry": {
        "type": "Polygon",
        "coordinates": [
          [
            [
              63.361691259566996,
              52.92379097751128
            ],
            [
              63.36169082496121,
              52.9237913316613
            ],
            [
              63.36169044988602,
              52.92379170985074
            ],
            [
              63.361690137953616,
              52.923792108437425
            ],
            [
              63.36168989216807,
              52.92379252358274
            ],
            [
              63.361689714896436,
              52.92379295128862
            ],
            [
              63.36168960784592,
              52.92379338743601
            ],
            [
              63.36168957204752,
              52.92379382782459
            ],
            [
              63.36168960784596,
              52.923794268213165
            ],
            [
              63.361689714896485,
              52.92379470436057
            ],
            [
              63.36168989216817,
              52.92379513206644
            ],
            [
              63.361690137953765,
              52.923795547211746
            ],
            [
              63.36169044988625,
              52.92379594579842
            ],
            [
              63.361690824961514,
              52.92379632398784
            ],
            [
              63.361691259567394,
              52.923796678137855
            ],
            [
              63.36169174951842,
              52.923797004837766
            ],
            [
              63.36169229009604,
              52.92379730094133
            ],
            [
              63.361692876094246,
              52.92379756359684
            ],
            [
              63.36169350186955,
              52.92379779027483
            ],
            [
              63.36169416139536,
              52.923797978792265
            ],
            [
              63.36169484832013,
              52.9237981273336
            ],
            [
              63.36169555602834,
              52.9237982344683
            ],
            [
              63.36169627770441,
              52.9237982991646
            ],
            [
              63.3616970063982,
              52.923798320799456
            ],
            [
              63.36169773509198,
              52.923798299164496
            ],
            [
              63.36169845676802,
              52.92379823446808
            ],
            [
              63.36169916447619,
              52.92379812733328
            ],
            [
              63.36169985140089,
              52.92379797879184
            ],
            [
              63.361700510926624,
              52.92379779027432
            ],
            [
              63.36170113670183,
              52.92379756359624
            ],
            [
              63.361701722699934,
              52.92379730094062
            ],
            [
              63.36170226327745,
              52.92379700483699
            ],
            [
              63.36170275322833,
              52.923796678137
            ],
            [
              63.36170318783406,
              52.92379632398693
            ],
            [
              63.36170356290918,
              52.923795945797444
            ],
            [
              63.361703793294645,
              52.92379565141121
            ],
            [
              63.36170419372416,
              52.92379587074799
            ],
            [
              63.361704779722416,
              52.923796133403464
            ],
            [
              63.361705405497744,
              52.9237963600814
            ],
            [
              63.36170606502361,
              52.92379654859876
            ],
            [
              63.36170675194837,
              52.92379669714002
            ],
            [
              63.3617074596566,
              52.92379680427466
            ],
            [
              63.36170818133266,
              52.92379686897089
            ],
            [
              63.36170891002642,
              52.923796890605665
            ],
            [
              63.36170963872018,
              52.92379686897063
            ],
            [
              63.36171036039618,
              52.923796804274154
            ],
            [
              63.3617110681043,
              52.923796697139274
            ],
            [
              63.361711755028935,
              52.92379654859776
            ],
            [
              63.36171241455461,
              52.92379636008017
            ],
            [
              63.36171304032972,
              52.923796133402035
            ],
            [
              63.361713626327735,
              52.92379587074635
            ],
            [
              63.36171416690515,
              52.92379557464266
            ],
            [
              63.36171465685592,
              52.92379524794262
            ],
            [
              63.36171509146155,
              52.92379489379252
            ],
            [
              63.36171546653655,
              52.92379451560299
            ],
            [
              63.36171577846875,
              52.92379411701624
            ],
            [
              63.36171602425405,
              52.92379370187088
            ],
            [
              63.36171620152543,
              52.923793274164964
            ],
            [
              63.36171630857568,
              52.92379283801753
            ],
            [
              63.36171634437382,
              52.923792397628944
            ],
            [
              63.361716308575105,
              52.923791957240375
            ],
            [
              63.3617162015243,
              52.923791521093
            ],
            [
              63.36171602425239,
              52.92379109338717
            ],
            [
              63.36171577846656,
              52.923790678241915
            ],
            [
              63.36171546653389,
              52.923790279655314
            ],
            [
              63.36171509145846,
              52.92378990146596
            ],
            [
              63.36171465685245,
              52.92378954731605
            ],
            [
              63.36171416690135,
              52.92378922061621
            ],
            [
              63.36171362632366,
              52.92378892451276
            ],
            [
              63.36171304032545,
              52.923788661857344
            ],
            [
              63.36171241455019,
              52.92378843517944
            ],
            [
              63.36171175502443,
              52.92378824666213
            ],
            [
              63.36171106809977,
              52.92378809812088
            ],
            [
              63.361710360391676,
              52.92378799098628
            ],
            [
              63.361709638715766,
              52.92378792629005
            ],
            [
              63.36170891002214,
              52.92378790465528
            ],
            [
              63.36170818132855,
              52.9237879262903
            ],
            [
              63.36170745965269,
              52.923787990986796
            ],
            [
              63.361706751944695,
              52.92378809812163
            ],
            [
              63.361706065020186,
              52.92378824666311
            ],
            [
              63.36170554762124,
              52.92378839455546
            ],
            [
              63.36170553396684,
              52.92378822658115
            ],
            [
              63.36170542691615,
              52.92378779043378
            ],
            [
              63.361705249644345,
              52.92378736272792
            ],
            [
              63.36170500385865,
              52.923786947582634
            ],
            [
              63.36170469192612,
              52.923786548996
            ],
            [
              63.3617043168508,
              52.92378617080663
            ],
            [
              63.361703882244925,
              52.92378581665667
            ],
            [
              63.36170339229395,
              52.92378548995679
            ],
            [
              63.36170285171638,
              52.923785193853305
            ],
            [
              63.36170226571827,
              52.923784931197815
            ],
            [
              63.36170163994312,
              52.923784704519875
            ],
            [
              63.361700980417474,
              52.923784516002485
            ],
            [
              63.361700293492916,
              52.92378436746119
            ],
            [
              63.36169958578491,
              52.923784260326514
            ],
            [
              63.36169886410906,
              52.923784195630226
            ],
            [
              63.36169813541551,
              52.923784173995394
            ],
            [
              63.36169740672197,
              52.92378419563033
            ],
            [
              63.36169668504617,
              52.923784260326755
            ],
            [
              63.36169597733821,
              52.92378436746155
            ],
            [
              63.361695290413714,
              52.92378451600297
            ],
            [
              63.36169463088816,
              52.923784704520465
            ],
            [
              63.36169400511311,
              52.923784931198504
            ],
            [
              63.36169341911512,
              52.92378519385409
            ],
            [
              63.36169287853769,
              52.92378548995767
            ],
            [
              63.36169238858687,
              52.923785816657634
            ],
            [
              63.36169195398114,
              52.92378617080765
            ],
            [
              63.36169157890601,
              52.92378654899711
            ],
            [
              63.361691266973644,
              52.923786947583785
            ],
            [
              63.36169102118814,
              52.92378736272911
            ],
            [
              63.36169084391653,
              52.92378779043499
            ],
            [
              63.36169073686605,
              52.923788226582396
            ],
            [
              63.36169070106765,
              52.923788666970964
            ],
            [
              63.36169073686611,
              52.92378910735957
            ],
            [
              63.36169084391664,
              52.92378954350694
            ],
            [
              63.36169102118831,
              52.92378997121282
            ],
            [
              63.361691266973885,
              52.92379038635813
            ],
            [
              63.36169156843145,
              52.92379077156002
            ],
            [
              63.361691259566996,
              52.92379097751128
            ]
          ]
        ]
      },
      "properties": {
        "id": "zone_2",
        "area_m2": 2.0,
        "weed_count": 3,
        "dominant_species": "leafy_spurge",
        "has_perennials": false,
        "rate_l_ha": 200
      }
    },
    {
      "type": "Feature",
      "id": "zone_3",
      "geometry": {
        "type": "Polygon",
        "coordinates": [
          [
            [
              63.37182934213042,
              52.91279016994846
            ],
            [
              63.37182890755201,
              52.91278981583488
            ],
            [
              63.37182841764894,
              52.91278948917614
            ],
            [
              63.37182787713926,
              52.91278919311816
            ],
            [
              63.37182729122833,
              52.912788930512114
            ],
            [
              63.37182666555882,
              52.91278870388707
            ],
            [
              63.371826006156255,
              52.91278851542553
            ],
            [
              63.371825319371055,
              52.91278836694248
            ],
            [
              63.37182461181731,
              52.91278825986791
            ],
            [
              63.37182389030917,
              52.912788195233
            ],
            [
              63.371823161795156,
              52.912788173660196
            ],
            [
              63.37182243329123,
              52.91278819535729
            ],
            [
              63.37182171181329,
              52.912788260115306
            ],
            [
              63.371821004309574,
              52.9127883673106
            ],
            [
              63.371820317593716,
              52.91278851591081
            ],
            [
              63.371819658279165,
              52.91278870448486
            ],
            [
              63.3718190327155,
              52.91278893121664
            ],
            [
              63.37181844692719,
              52.91278919392264
            ],
            [
              63.37181790655574,
              52.912789490072825
            ],
            [
              63.3718174168052,
              52.91278981681514
            ],
            [
              63.371816982392154,
              52.91279017100285
            ],
            [
              63.371816607500215,
              52.91279054922496
            ],
            [
              63.37181629573981,
              52.91279094783894
            ],
            [
              63.37181605011339,
              52.91279136300599
            ],
            [
              63.37181587298641,
              52.91279179072776
            ],
            [
              63.37181576606476,
              52.912792226885095
            ],
            [
              63.37181573037814,
              52.91279266727753
            ],
            [
              63.37181576627022,
              52.91279310766388
            ],
            [
              63.371815873395356,
              52.91279354380295
            ],
            [
              63.37181605072187,
              52.912793971494516
            ],
            [
              63.371816296542015,
              52.91279438661965
            ],
            [
              63.3718166084884,
              52.91279478518049
            ],
            [
              63.37181698355683,
              52.91279516333864
            ],
            [
              63.37181741813518,
              52.91279551745227
            ],
            [
              63.37181790803823,
              52.91279584411105
            ],
            [
              63.37181844854794,
              52.912796140169085
            ],
            [
              63.37181903445891,
              52.912796402775164
            ],
            [
              63.371819660128494,
              52.91279662940025
            ],
            [
              63.37182031953115,
              52.912796817861825
            ],
            [
              63.37182100631648,
              52.91279696634489
            ],
            [
              63.37182171387035,
              52.91279707341949
            ],
            [
              63.37182243537863,
              52.91279713805443
            ],
            [
              63.371823163892806,
              52.91279715962722
            ],
            [
              63.371823892396876,
              52.91279713793013
            ],
            [
              63.371824613874956,
              52.912797073172094
            ],
            [
              63.37182532137879,
              52.91279696597678
            ],
            [
              63.37182600809477,
              52.91279681737654
            ],
            [
              63.37182666740941,
              52.91279662880247
            ],
            [
              63.37182729297318,
              52.91279640207063
            ],
            [
              63.37182787876152,
              52.912796139364595
            ],
            [
              63.37182841913299,
              52.91279584321436
            ],
            [
              63.3718289088835,
              52.91279551647201
            ],
            [
              63.37182934329651,
              52.912795162284255
            ],
            [
              63.37182971818838,
              52.91279478406211
            ],
            [
              63.371830029948676,
              52.91279438544809
            ],
            [
              63.371830275575,
              52.912793970281015
            ],
            [
              63.37183045270182,
              52.91279354255923
            ],
            [
              63.37183055962334,
              52.91279310640188
            ],
            [
              63.37183059530981,
              52.91279266600943
            ],
            [
              63.371830559417575,
              52.91279222562308
            ],
            [
              63.37183045229231,
              52.91279178948401
            ],
            [
              63.37183027496565,
              52.91279136179248
            ],
            [
              63.37183002914539,
              52.91279094666738
            ],
            [
              63.37182971719892,
              52.912790548106585
            ],
            [
              63.37182934213042,
              52.91279016994846
            ]
          ]
        ]
      },
      "properties": {
        "id": "zone_3",
        "area_m2": 0.78,
        "weed_count": 1,
        "dominant_species": "leafy_spurge",
        "has_perennials": false,
        "rate_l_ha": 200
      }
    },
    {
      "type": "Feature",
      "id": "zone_4",
      "geometry": {
        "type": "Polygon",
        "coordinates": [
          [
            [
              63.371890966762976,
              52.91279245790957
            ],
            [
              63.371889663026245,
              52.91279139556949
            ],
            [
              63.371888193315655,
              52.91279041559404
            ],
            [
              63.37188657178532,
              52.9127895274209
            ],
            [
              63.37188481405148,
              52.91278873960365
            ],
            [
              63.37188293704207,
              52.91278805972939
            ],
            [
              63.3718809588337,
              52.912787494345686
            ],
            [
              63.37187889847756,
              52.912787048897506
            ],
            [
              63.37187677581604,
              52.912786727674735
            ],
            [
              63.37187461129149,
              52.9127865337709
            ],
            [
              63.37187242574943,
              52.91278646905345
            ],
            [
              63.37187024023782,
              52.91278653414561
            ],
            [
              63.37186807580431,
              52.912786728420514
            ],
            [
              63.37186595329357,
              52.9127870500072
            ],
            [
              63.37186389314651,
              52.912787495808615
            ],
            [
              63.37186191520346,
              52.91278806153145
            ],
            [
              63.37186003851307,
              52.91278874172749
            ],
            [
              63.3718582811489,
              52.91278952984606
            ],
            [
              63.37185666003532,
              52.91279041829718
            ],
            [
              63.37185519078454,
              52.91279139852458
            ],
            [
              63.37185388754624,
              52.91279246108812
            ],
            [
              63.37185276287133,
              52.91279359575476
            ],
            [
              63.371851827591044,
              52.912794791597044
            ],
            [
              63.37185109071267,
              52.91279603709836
            ],
            [
              63.371850559332756,
              52.91279732026384
            ],
            [
              63.371850238568804,
              52.912798628735914
            ],
            [
              63.37185013150996,
              52.912799949913286
            ],
            [
              63.37185023918727,
              52.91280127107229
            ],
            [
              63.37185056056377,
              52.91280257948944
            ],
            [
              63.37185109254445,
              52.91280386256395
            ],
            [
              63.371851830006065,
              52.91280510793914
            ],
            [
              63.37185276584647,
              52.91280630362134
            ],
            [
              63.371853891053014,
              52.91280743809547
            ],
            [
              63.37185519478937,
              52.912808500435936
            ],
            [
              63.37185666449983,
              52.912809480411795
            ],
            [
              63.37185828603028,
              52.91281036858535
            ],
            [
              63.371860043764514,
              52.91281115640298
            ],
            [
              63.37186192077457,
              52.9128118362776
            ],
            [
              63.37186389898381,
              52.912812401661604
            ],
            [
              63.37186595934097,
              52.912812847110054
            ],
            [
              63.3718680820037,
              52.91281316833303
            ],
            [
              63.371870246529554,
              52.91281336223697
            ],
            [
              63.37187243207297,
              52.91281342695447
            ],
            [
              63.37187461758593,
              52.91281336186227
            ],
            [
              63.37187678202073,
              52.91281316758724
            ],
            [
              63.371878904532664,
              52.91281284600036
            ],
            [
              63.37188096468078,
              52.91281240019868
            ],
            [
              63.371882942624694,
              52.91281183447554
            ],
            [
              63.37188481931572,
              52.91281115427914
            ],
            [
              63.37188657668028,
              52.91281036616018
            ],
            [
              63.371888197793986,
              52.912809477708656
            ],
            [
              63.371889667044634,
              52.91280849748086
            ],
            [
              63.37189097028255,
              52.912807434916914
            ],
            [
              63.37189209495681,
              52.91280630024991
            ],
            [
              63.37189303023623,
              52.91280510440731
            ],
            [
              63.37189376711355,
              52.912803858905754
            ],
            [
              63.37189429849228,
              52.912802575740066
            ],
            [
              63.37189461925494,
              52.91280126726788
            ],
            [
              63.37189472631245,
              52.91279994609047
            ],
            [
              63.371894618633775,
              52.91279862493151
            ],
            [
              63.37189429725596,
              52.912797316514485
            ],
            [
              63.37189376527408,
              52.91279603344015
            ],
            [
              63.371893027811424,
              52.912794788065234
            ],
            [
              63.37189209197017,
              52.91279359238334
            ],
            [
              63.371890966762976,
              52.91279245790957
            ]
          ]
        ]
      },
      "properties": {
        "id": "zone_4",
        "area_m2": 7.06,
        "weed_count": 2,
        "dominant_species": "couch_grass",
        "has_perennials": true,
        "rate_l_ha": 250
      }
    },
    {
      "type": "Feature",
      "id": "zone_5",
      "geometry": {
        "type": "Polygon",
        "coordinates": [
          [
            [
              63.371850093976256,
              52.91280699070915
            ],
            [
              63.37184896876981,
              52.91280585623499
            ],
            [
              63.3718476650337,
              52.91280479389446
            ],
            [
              63.37184619532361,
              52.91280381391848
            ],
            [
              63.37184457379363,
              52.91280292574477
            ],
            [
              63.371842816060024,
              52.9128021379269
            ],
            [
              63.37184093905069,
              52.91280145805198
            ],
            [
              63.371838960842254,
              52.9128008926676
            ],
            [
              63.37183690048592,
              52.91280044721867
            ],
            [
              63.37183477782405,
              52.91280012599514
            ],
            [
              63.37183261329901,
              52.91279993209055
            ],
            [
              63.371830427756336,
              52.91279986737232
            ],
            [
              63.371828242244,
              52.912799932463706
            ],
            [
              63.37182607780963,
              52.91280012673786
            ],
            [
              63.37182395529793,
              52.912800448323786
            ],
            [
              63.3718218951498,
              52.91280089412447
            ],
            [
              63.37181991720558,
              52.912801459846605
            ],
            [
              63.37181804051396,
              52.912802140041975
            ],
            [
              63.37181628314849,
              52.912802928159934
            ],
            [
              63.37181466203355,
              52.91280381661048
            ],
            [
              63.37181319278137,
              52.91280479683734
            ],
            [
              63.37181188954163,
              52.91280585940043
            ],
            [
              63.37181076486528,
              52.91280699406666
            ],
            [
              63.37180982958356,
              52.912808189908624
            ],
            [
              63.37180909270375,
              52.91280943540967
            ],
            [
              63.37180856132243,
              52.91281071857495
            ],
            [
              63.37180824055711,
              52.91281202704692
            ],
            [
              63.371808133496955,
              52.912813348224255
            ],
            [
              63.371808241173014,
              52.91281466938329
            ],
            [
              63.37180856254836,
              52.91281597780054
            ],
            [
              63.37180909452796,
              52.91281726087525
            ],
            [
              63.37180983198861,
              52.912818506250694
            ],
            [
              63.37181076782814,
              52.912819701933216
            ],
            [
              63.37181189303393,
              52.91282083640776
            ],
            [
              63.37181319676966,
              52.91282189874867
            ],
            [
              63.37181466647962,
              52.91282287872505
            ],
            [
              63.37181628800972,
              52.91282376689918
            ],
            [
              63.37181804574372,
              52.91282455471743
            ],
            [
              63.3718199227537,
              52.9128252345927
            ],
            [
              63.371821900963006,
              52.91282579997741
            ],
            [
              63.37182396132039,
              52.912826245426594
            ],
            [
              63.37182608398344,
              52.91282656665031
            ],
            [
              63.37182824850978,
              52.91282676055501
            ],
            [
              63.371830434053805,
              52.91282682527329
            ],
            [
              63.371832619567506,
              52.91282676018186
            ],
            [
              63.37183478400317,
              52.91282656590759
            ],
            [
              63.37183690651607,
              52.91282624432145
            ],
            [
              63.37183896666524,
              52.91282579852053
            ],
            [
              63.37184094461033,
              52.91282523279808
            ],
            [
              63.37184282130257,
              52.91282455260235
            ],
            [
              63.371844578668444,
              52.912823764483996
            ],
            [
              63.37184619978351,
              52.912822876033054
            ],
            [
              63.37184766903556,
              52.912821895805784
            ],
            [
              63.3718489722749,
              52.91282083324231
            ],
            [
              63.371850096950624,
              52.912819698575696
            ],
            [
              63.37185103223148,
              52.91281850273344
            ],
            [
              63.371851769110236,
              52.91281725723212
            ],
            [
              63.37185230049037,
              52.91281597406664
            ],
            [
              63.371852621254384,
              52.91281466559456
            ],
            [
              63.3718527283132,
              52.9128133444172
            ],
            [
              63.371852620635764,
              52.912812023258205
            ],
            [
              63.37185229925914,
              52.91281071484107
            ],
            [
              63.37185176727834,
              52.91280943176655
            ],
            [
              63.371851029816646,
              52.91280818639137
            ],
            [
              63.371850093976256,
              52.91280699070915
            ]
          ]
        ]
      },
      "properties": {
        "id": "zone_5",
        "area_m2": 7.06,
        "weed_count": 1,
        "dominant_species": "couch_grass",
        "has_perennials": true,
        "rate_l_ha": 250
      }
    },
    {
      "type": "Feature",
      "id": "zone_6",
      "geometry": {
        "type": "Polygon",
        "coordinates": [
          [
            [
              63.36395468758996,
              52.92513277087965
            ],
            [
              63.363954252952226,
              52.92513241673801
            ],
            [
              63.3639537629691,
              52.925132090047484
            ],
            [
              63.36395322235942,
              52.92513179395429
            ],
            [
              63.36395263632952,
              52.92513153130997
            ],
            [
              63.36395201052319,
              52.92513130464393
            ],
            [
              63.363951350967305,
              52.92513111613908
            ],
            [
              63.36395066401372,
              52.92513096761082
            ],
            [
              63.36394995627821,
              52.925130860489574
            ],
            [
              63.363949234576616,
              52.92513079580696
            ],
            [
              63.36394850585934,
              52.92513077418594
            ],
            [
              63.36394777714431,
              52.92513079583469
            ],
            [
              63.36394705544946,
              52.925130860544755
            ],
            [
              63.36394634772509,
              52.92513096769292
            ],
            [
              63.363945660786996,
              52.92513111624731
            ],
            [
              63.36394500125074,
              52.92513130477725
            ],
            [
              63.36394437546803,
              52.9251315314671
            ],
            [
              63.36394378946549,
              52.925131794133726
            ],
            [
              63.36394324888664,
              52.925132090247466
            ],
            [
              63.36394275893756,
              52.92513241695664
            ],
            [
              63.3639423243367,
              52.92513277111482
            ],
            [
              63.363941949269545,
              52.92513314931127
            ],
            [
              63.363941637348184,
              52.92513354790379
            ],
            [
              63.363941391576574,
              52.92513396305366
            ],
            [
              63.36394121432164,
              52.9251343907628
            ],
            [
              63.36394110729045,
              52.92513482691213
            ],
            [
              63.36394107151378,
              52.925135267301286
            ],
            [
              63.363941107336174,
              52.92513570768909
            ],
            [
              63.36394121441264,
              52.92513614383436
            ],
            [
              63.36394139171199,
              52.925136571536775
            ],
            [
              63.36394163752673,
              52.92513698667733
            ],
            [
              63.363941696328645,
              52.92513706180586
            ],
            [
              63.36394152894416,
              52.92513707681422
            ],
            [
              63.363940821219686,
              52.925137183962356
            ],
            [
              63.363940134281464,
              52.92513733251672
            ],
            [
              63.363939474745095,
              52.92513752104662
            ],
            [
              63.363938848962256,
              52.92513774773644
            ],
            [
              63.3639382629596,
              52.925138010403046
            ],
            [
              63.36393772238063,
              52.925138306516764
            ],
            [
              63.36393723243143,
              52.925138633225906
            ],
            [
              63.36393679783048,
              52.92513898738406
            ],
            [
              63.363936422763224,
              52.925139365580506
            ],
            [
              63.36393611084175,
              52.925139764173
            ],
            [
              63.36393586507005,
              52.92514017932286
            ],
            [
              63.36393568781505,
              52.92514060703199
            ],
            [
              63.36393558078379,
              52.92514104318133
            ],
            [
              63.36393554500705,
              52.925141483570464
            ],
            [
              63.3639355808294,
              52.92514192395827
            ],
            [
              63.36393568790583,
              52.92514236010354
            ],
            [
              63.36393586520515,
              52.92514278780597
            ],
            [
              63.363936111019875,
              52.92514320294654
            ],
            [
              63.36393642298266,
              52.925143601527225
            ],
            [
              63.363936798089135,
              52.925143979709475
            ],
            [
              63.36393723272685,
              52.92514433385118
            ],
            [
              63.363937722709984,
              52.92514466054176
            ],
            [
              63.363938263319724,
              52.92514495663503
            ],
            [
              63.36393884934972,
              52.925145219279415
            ],
            [
              63.36393947515619,
              52.92514544594554
            ],
            [
              63.36394013471224,
              52.92514563445045
            ],
            [
              63.363940821666006,
              52.92514578297877
            ],
            [
              63.36394152940175,
              52.92514589010007
            ],
            [
              63.36394225110359,
              52.92514595478273
            ],
            [
              63.363942979821104,
              52.925145976403805
            ],
            [
              63.3639437085364,
              52.925145954755074
            ],
            [
              63.36394443023149,
              52.92514589004503
            ],
            [
              63.36394513795611,
              52.92514578289687
            ],
            [
              63.363945824894444,
              52.925145634342485
            ],
            [
              63.36394648443091,
              52.92514544581254
            ],
            [
              63.363947110213815,
              52.925145219122676
            ],
            [
              63.36394769621652,
              52.925144956456045
            ],
            [
              63.363948236795494,
              52.92514466034227
            ],
            [
              63.363948726744674,
              52.925144333633085
            ],
            [
              63.36394916134559,
              52.92514397947489
            ],
            [
              63.36394953641278,
              52.9251436012784
            ],
            [
              63.363949848334144,
              52.92514320268588
            ],
            [
              63.363950094105725,
              52.92514278753598
            ],
            [
              63.36395027136061,
              52.925142359826815
            ],
            [
              63.36395037839172,
              52.925141923677494
            ],
            [
              63.36395041416829,
              52.925141483288336
            ],
            [
              63.363950378345805,
              52.92514104290054
            ],
            [
              63.363950271269225,
              52.92514060675528
            ],
            [
              63.36395009396978,
              52.92514017905288
            ],
            [
              63.36394984815495,
              52.925139763912334
            ],
            [
              63.36394978935301,
              52.9251396887838
            ],
            [
              63.36394995673751,
              52.92513967377543
            ],
            [
              63.363950664462,
              52.925139566627244
            ],
            [
              63.36395135140022,
              52.92513941807282
            ],
            [
              63.36395201093657,
              52.92513922954284
            ],
            [
              63.363952636719354,
              52.92513900285295
            ],
            [
              63.36395322272194,
              52.9251387401863
            ],
            [
              63.363953763300806,
              52.925138444072495
            ],
            [
              63.36395425324987,
              52.92513811736329
            ],
            [
              63.36395468785067,
              52.925137763205065
            ],
            [
              63.363955062917775,
              52.92513738500857
            ],
            [
              63.36395537483904,
              52.92513698641603
            ],
            [
              63.36395562061053,
              52.92513657126612
            ],
            [
              63.36395579786534,
              52.92513614355696
            ],
            [
              63.36395590489637,
              52.92513570740761
            ],
            [
              63.363955940672895,
              52.92513526701846
            ],
            [
              63.36395590485036,
              52.92513482663066
            ],
            [
              63.36395579777374,
              52.9251343904854
            ],
            [
              63.36395562047425,
              52.925133962783015
            ],
            [
              63.3639553746594,
              52.925133547642474
            ],
            [
              63.36395506269651,
              52.925133149061836
            ],
            [
              63.36395468758996,
              52.92513277087965
            ]
          ]
        ]
      },
      "properties": {
        "id": "zone_6",
        "area_m2": 1.48,
        "weed_count": 2,
        "dominant_species": "leafy_spurge",
        "has_perennials": false,
        "rate_l_ha": 200
      }
    },
    {
      "type": "Feature",
      "id": "zone_7",
      "geometry": {
        "type": "Polygon",
        "coordinates": [
          [
            [
              63.36391797832228,
              52.92513619147848
            ],
            [
              63.3639175436848,
              52.92513583733671
            ],
            [
              63.36391705370192,
              52.92513551064604
            ],
            [
              63.36391651309244,
              52.925135214552675
            ],
            [
              63.363915927062706,
              52.92513495190817
            ],
            [
              63.363915301256526,
              52.92513472524194
            ],
            [
              63.363914641700745,
              52.925134536736884
            ],
            [
              63.36391395474724,
              52.925134388208406
            ],
            [
              63.36391324701175,
              52.92513428108695
            ],
            [
              63.36391252531017,
              52.92513421640412
            ],
            [
              63.363911796592845,
              52.92513419478286
            ],
            [
              63.363911067877744,
              52.92513421643139
            ],
            [
              63.363910346182784,
              52.925134281141226
            ],
            [
              63.363909638458274,
              52.92513438828918
            ],
            [
              63.36390895152,
              52.92513453684336
            ],
            [
              63.36390829198353,
              52.9251347253731
            ],
            [
              63.36390766620058,
              52.92513495206276
            ],
            [
              63.36390708019777,
              52.92513521472919
            ],
            [
              63.363906539618625,
              52.925135510842786
            ],
            [
              63.363906049669225,
              52.92513583755179
            ],
            [
              63.36390561506804,
              52.92513619170983
            ],
            [
              63.363905240000534,
              52.92513656990617
            ],
            [
              63.3639049280788,
              52.92513696849859
            ],
            [
              63.363904682306824,
              52.925137383648384
            ],
            [
              63.36390450505151,
              52.925137811357466
            ],
            [
              63.36390439801995,
              52.92513824750676
            ],
            [
              63.363904362242906,
              52.92513868789592
            ],
            [
              63.36390439806494,
              52.92513912828373
            ],
            [
              63.36390450514104,
              52.92513956442902
            ],
            [
              63.36390468244005,
              52.9251399921315
            ],
            [
              63.36390492825444,
              52.92514040727214
            ],
            [
              63.36390524021692,
              52.9251408058529
            ],
            [
              63.36390561532311,
              52.92514118403523
            ],
            [
              63.36390604996053,
              52.92514153817706
            ],
            [
              63.36390653994341,
              52.92514186486778
            ],
            [
              63.36390708055291,
              52.92514216096118
            ],
            [
              63.363907666582676,
              52.92514242360573
            ],
            [
              63.36390829238892,
              52.925142650272015
            ],
            [
              63.36390895194481,
              52.92514283877709
            ],
            [
              63.36390963889843,
              52.9251429873056
            ],
            [
              63.36391034663404,
              52.925143094427085
            ],
            [
              63.36391106833578,
              52.92514315910992
            ],
            [
              63.36391179705325,
              52.92514318073119
            ],
            [
              63.36391252576851,
              52.92514315908266
            ],
            [
              63.36391324746359,
              52.9251430943728
            ],
            [
              63.363913955188245,
              52.92514298722483
            ],
            [
              63.363914642126645,
              52.92514283867063
            ],
            [
              63.363915301663205,
              52.92514265014085
            ],
            [
              63.363915927446236,
              52.92514242345115
            ],
            [
              63.363916513449084,
              52.92514216078467
            ],
            [
              63.36391705402824,
              52.92514186467103
            ],
            [
              63.36391754397763,
              52.925141537961984
            ],
            [
              63.36391797857876,
              52.925141183803895
            ],
            [
              63.363918353646206,
              52.92514080560751
            ],
            [
              63.363918665567844,
              52.92514040701507
            ],
            [
              63.3639189113397,
              52.92513999186524
            ],
            [
              63.363919088594876,
              52.92513956415613
            ],
            [
              63.36391919562629,
              52.92513912800683
            ],
            [
              63.363919231403194,
              52.92513868761767
            ],
            [
              63.36391919558101,
              52.92513824722986
            ],
            [
              63.363919088504765,
              52.925137811084575
            ],
            [
              63.36391891120563,
              52.92513738338213
            ],
            [
              63.36391866539111,
              52.92513696824152
            ],
            [
              63.36391835342853,
              52.92513656966079
            ],
            [
              63.36391797832228,
              52.92513619147848
            ]
          ]
        ]
      },
      "properties": {
        "id": "zone_7",
        "area_m2": 0.78,
        "weed_count": 1,
        "dominant_species": "leafy_spurge",
        "has_perennials": false,
        "rate_l_ha": 200
      }
    },
    {
      "type": "Feature",
      "id": "zone_8",
      "geometry": {
        "type": "Polygon",
        "coordinates": [
          [
            [
              63.3639262219272,
              52.92514503314155
            ],
            [
              63.363925787289574,
              52.9251446789998
            ],
            [
              63.36392529730654,
              52.92514435230917
            ],
            [
              63.36392475669688,
              52.92514405621585
            ],
            [
              63.363924170666984,
              52.92514379357138
            ],
            [
              63.36392354486064,
              52.925143566905184
            ],
            [
              63.363922885304675,
              52.92514337840017
            ],
            [
              63.363922198351005,
              52.92514322987175
            ],
            [
              63.36392149061537,
              52.925143122750335
            ],
            [
              63.3639207689136,
              52.92514305806756
            ],
            [
              63.363920040196135,
              52.92514303644634
            ],
            [
              63.3639193114809,
              52.925143058094925
            ],
            [
              63.3639185897858,
              52.92514312280482
            ],
            [
              63.363917882061166,
              52.925143229952816
            ],
            [
              63.36391719512276,
              52.92514337850704
            ],
            [
              63.3639165355862,
              52.92514356703683
            ],
            [
              63.363915909803175,
              52.925143793726534
            ],
            [
              63.363915323800285,
              52.925144056393
            ],
            [
              63.36391478322109,
              52.92514435250664
            ],
            [
              63.363914293271655,
              52.92514467921568
            ],
            [
              63.36391385867044,
              52.92514503337375
            ],
            [
              63.363913483602936,
              52.925145411570114
            ],
            [
              63.363913171681205,
              52.92514581016255
            ],
            [
              63.36391292590926,
              52.925146225312375
            ],
            [
              63.36391274865401,
              52.925146653021464
            ],
            [
              63.363912641622505,
              52.92514708917077
            ],
            [
              63.36391260584554,
              52.925147529559915
            ],
            [
              63.363912641667646,
              52.925147969947716
            ],
            [
              63.36391274874387,
              52.925148406093015
            ],
            [
              63.36391292604297,
              52.925148833795475
            ],
            [
              63.36391317185751,
              52.92514924893609
            ],
            [
              63.36391348382014,
              52.92514964751684
            ],
            [
              63.36391385892648,
              52.925150025699146
            ],
            [
              63.36391429356405,
              52.92515037984095
            ],
            [
              63.36391478354708,
              52.92515070653163
            ],
            [
              63.36391532415675,
              52.925151002625
            ],
            [
              63.363915910186684,
              52.9251512652695
            ],
            [
              63.36391653599312,
              52.925151491935736
            ],
            [
              63.36391719554916,
              52.92515168044078
            ],
            [
              63.363917882502946,
              52.92515182896923
            ],
            [
              63.36391859023874,
              52.925151936090664
            ],
            [
              63.36391931194063,
              52.92515200077346
            ],
            [
              63.36392004065824,
              52.92515202239467
            ],
            [
              63.36392076937364,
              52.92515200074609
            ],
            [
              63.36392149106887,
              52.92515193603619
            ],
            [
              63.36392219879365,
              52.92515182888816
            ],
            [
              63.36392288573215,
              52.925151680333904
            ],
            [
              63.36392354526882,
              52.92515149180409
            ],
            [
              63.36392417105192,
              52.92515126511436
            ],
            [
              63.363924757054846,
              52.925151002447826
            ],
            [
              63.363925297634054,
              52.92515070633416
            ],
            [
              63.36392578758349,
              52.92515037962507
            ],
            [
              63.36392622218464,
              52.92515002546695
            ],
            [
              63.36392659725208,
              52.92514964727054
            ],
            [
              63.36392690917371,
              52.92514924867808
            ],
            [
              63.363927154945536,
              52.92514883352823
            ],
            [
              63.36392733220066,
              52.925148405819115
            ],
            [
              63.36392743923203,
              52.9251479696698
            ],
            [
              63.36392747500884,
              52.92514752928064
            ],
            [
              63.36392743918658,
              52.92514708889284
            ],
            [
              63.36392733211022,
              52.92514665274756
            ],
            [
              63.36392715481097,
              52.925146225045125
            ],
            [
              63.363926908996326,
              52.925145809904535
            ],
            [
              63.363926597033604,
              52.92514541132383
            ],
            [
              63.3639262219272,
              52.92514503314155
            ]
          ]
        ]
      },
      "properties": {
        "id": "zone_8",
        "area_m2": 0.78,
        "weed_count": 1,
        "dominant_species": "horse_sorrel",
        "has_perennials": false,
        "rate_l_ha": 200
      }
    },
    {
      "type": "Feature",
      "id": "zone_9",
      "geometry": {
        "type": "Polygon",
        "coordinates": [
          [
            [
              63.36425223555221,
              52.92521727014871
            ],
            [
              63.3642509316292,
              52.92521620772705
            ],
            [
              63.36424946167033,
              52.925215227659166
            ],
            [
              63.36424783983212,
              52.92521433938363
            ],
            [
              63.36424608173374,
              52.92521355145502
            ],
            [
              63.36424420430665,
              52.92521287146152
            ],
            [
              63.36424222563146,
              52.92521230595182
            ],
            [
              63.36424016476391,
              52.92521186037211
            ],
            [
              63.36423804155125,
              52.925211539013524
            ],
            [
              63.364235876441185,
              52.92521134497094
            ],
            [
              63.36423369028486,
              52.92521128011309
            ],
            [
              63.364231504136164,
              52.925211345064604
            ],
            [
              63.36422933904884,
              52.925211539199935
            ],
            [
              63.3642272158739,
              52.92521186064947
            ],
            [
              63.36422515505862,
              52.92521230631749
            ],
            [
              63.36422317644978,
              52.92521287191196
            ],
            [
              63.364221299102454,
              52.92521355198589
            ],
            [
              63.364219541096524,
              52.925214339989815
            ],
            [
              63.36421791936251,
              52.925215228334835
            ],
            [
              63.364216449518615,
              52.9252162084657
            ],
            [
              63.364215145720244,
              52.92521727094321
            ],
            [
              63.364214020523676,
              52.92521840553515
            ],
            [
              63.3642130847652,
              52.92521960131477
            ],
            [
              63.3642123474567,
              52.92522084676609
            ],
            [
              63.364211815698845,
              52.9252221298947
            ],
            [
              63.36421149461279,
              52.92522343834339
            ],
            [
              63.36421138729079,
              52.92522475951109
            ],
            [
              63.36421149476641,
              52.92522608067422
            ],
            [
              63.36421181600466,
              52.92522738910928
            ],
            [
              63.364211883972466,
              52.92522755306628
            ],
            [
              63.364211646224284,
              52.92522785687794
            ],
            [
              63.36421140045472,
              52.92522827202837
            ],
            [
              63.36421122320206,
              52.9252286997379
            ],
            [
              63.36421111617336,
              52.92522913588748
            ],
            [
              63.36421108039936,
              52.9252295762767
            ],
            [
              63.36421111622457,
              52.92523001666442
            ],
            [
              63.36421122330398,
              52.925230452809444
            ],
            [
              63.364211400606386,
              52.92523088051145
            ],
            [
              63.36421164642423,
              52.925231295651436
            ],
            [
              63.36421195839018,
              52.925231694231385
            ],
            [
              63.364212333499836,
              52.92523207241277
            ],
            [
              63.36421276814066,
              52.925232426553464
            ],
            [
              63.36421325812688,
              52.9252327532429
            ],
            [
              63.3642137987396,
              52.925233049334906
            ],
            [
              63.36421438477246,
              52.92523331197794
            ],
            [
              63.36421501058162,
              52.9252335386426
            ],
            [
              63.364215670140204,
              52.92523372714599
            ],
            [
              63.36421635709631,
              52.925233875672696
            ],
            [
              63.364217064834165,
              52.92523398279236
            ],
            [
              63.36421752031965,
              52.92523402361416
            ],
            [
              63.36421792047363,
              52.925234290409556
            ],
            [
              63.36421954231197,
              52.9252351786855
            ],
            [
              63.36422130041075,
              52.92523596661449
            ],
            [
              63.3642231778385,
              52.92523664660836
            ],
            [
              63.36422515651453,
              52.92523721211836
            ],
            [
              63.364227217383124,
              52.92523765769835
            ],
            [
              63.36422934059697,
              52.92523797905712
            ],
            [
              63.36423150570835,
              52.925238173099814
            ],
            [
              63.36423369186602,
              52.9252382379577
            ],
            [
              63.36423587801608,
              52.92523817300616
            ],
            [
              63.36423804310469,
              52.925237978870705
            ],
            [
              63.36424016628084,
              52.92523765742098
            ],
            [
              63.36424222709716,
              52.925237211752695
            ],
            [
              63.364244205706854,
              52.92523664615791
            ],
            [
              63.36424608305483,
              52.925235966083626
            ],
            [
              63.364247841061164,
              52.9252351780793
            ],
            [
              63.36424946279531,
              52.925234289733886
            ],
            [
              63.36425093263906,
              52.925233309602625
            ],
            [
              63.364252236437046,
              52.92523224712472
            ],
            [
              63.364253361632976,
              52.925231112532416
            ],
            [
              63.36425429739058,
              52.92522991675247
            ],
            [
              63.36425503469804,
              52.925228671300914
            ],
            [
              63.364255566454695,
              52.9252273881721
            ],
            [
              63.36425588753946,
              52.92522607972329
            ],
            [
              63.36425599486011,
              52.92522475855555
            ],
            [
              63.36425588738311,
              52.925223437392454
            ],
            [
              63.36425556614358,
              52.925222128957515
            ],
            [
              63.36425503423521,
              52.92522084585169
            ],
            [
              63.36425429678059,
              52.925219600431966
            ],
            [
              63.364253360881854,
              52.92521840469245
            ],
            [
              63.36425223555221,
              52.92521727014871
            ]
          ]
        ]
      },
      "properties": {
        "id": "zone_9",
        "area_m2": 7.15,
        "weed_count": 7,
        "dominant_species": "leafy_spurge",
        "has_perennials": true,
        "rate_l_ha": 250
      }
    }
  ]
}